COMMENT,ORIGINATOR,NORAD_CAT_ID,OBJECT_NAME,OBJECT_TYPE,CLASSIFICATION_TYPE,INTLDES,EPOCH,EPOCH_MICROSECONDS,MEAN_MOTION,ECCENTRICITY,INCLINATION,RA_OF_ASC_NODE,ARG_OF_PERICENTER,MEAN_ANOMALY,EPHEMERIS_TYPE,ELEMENT_SET_NO,REV_AT_EPOCH,BSTAR,MEAN_MOTION_DOT,MEAN_MOTION_DDOT,FILE,TLE_LINE0,TLE_LINE1,TLE_LINE2,OBJECT_ID,OBJECT_NUMBER,SEMIMAJOR_AXIS,PERIOD,APOGEE,PERIGEE,DECAYED
"GENERATED VIA SPACETRACK.ORG API","18 SPCS","48896","SPACEBEE-105","PAYLOAD","U","21059T","2022-11-07 14:49:36","215328","15.18975144","0.0007618","97.5728","80.8208","324.4335","35.639","0","999","7563","0.00082681","0.00017258","0","3648233","0 SPACEBEE-105","1 48896U 21059T   22311.61778027  .00017258  00000-0  82681-3 0  9990","2 48896  97.5728  80.8208 0007618 324.4335  35.6390 15.18975144 75639","2021-059T","48896","6887.074","94.801","514.185","503.692","0"
"GENERATED VIA SPACETRACK.ORG API","18 SPCS","48896","SPACEBEE-105","PAYLOAD","U","21059T","2022-11-08 08:13:03","566496","15.19006529","0.00076","97.573","81.547","321.5956","38.4736","0","999","7574","0.00080638","0.00016844","0","3648805","0 SPACEBEE-105","1 48896U 21059T   22312.34240239  .00016844  00000-0  80638-3 0  9990","2 48896  97.5730  81.5470 0007600 321.5956  38.4736 15.19006529 75749","2021-059T","48896","6886.979","94.799","514.078","503.610","0"
"GENERATED VIA SPACETRACK.ORG API","18 SPCS","48896","SPACEBEE-105","PAYLOAD","U","21059T","2022-11-08 16:07:21","10080","15.19023788","0.0007602","97.573","81.8774","320.2849","39.7827","0","999","7579","0.0009165","0.0001917","0","3648928","0 SPACEBEE-105","1 48896U 21059T   22312.67177095  .00019170  00000-0  91650-3 0  9996","2 48896  97.5730  81.8774 0007602 320.2849  39.7827 15.19023788 75794","2021-059T","48896","6886.927","94.798","514.027","503.556","0"
"GENERATED VIA SPACETRACK.ORG API","18 SPCS","48896","SPACEBEE-105","PAYLOAD","U","21059T","2022-11-08 16:07:21","10080","15.19023788","0.0007602","97.573","81.8774","320.2849","39.7827","0","999","7579","0.0009165","0.0001917","0","3649076","0 SPACEBEE-105","1 48896U 21059T   22312.67177095  .00019170  00000-0  91650-3 0  9996","2 48896  97.5730  81.8774 0007602 320.2849  39.7827 15.19023788 75794","2021-059T","48896","6886.927","94.798","514.027","503.556","0"
"GENERATED VIA SPACETRACK.ORG API","18 SPCS","48896","SPACEBEE-105","PAYLOAD","U","21059T","2022-11-09 14:15:20","277216","15.19068074","0.0007654","97.5733","82.8016","316.7795","43.2838","0","999","7593","0.0009457","0.0001981","0","3649526","0 SPACEBEE-105","1 48896U 21059T   22313.59398469  .00019810  00000-0  94570-3 0  9993","2 48896  97.5733  82.8016 0007654 316.7795  43.2838 15.19068074 75939","2021-059T","48896","6886.793","94.795","513.929","503.387","0"
"GENERATED VIA SPACETRACK.ORG API","18 SPCS","48896","SPACEBEE-105","PAYLOAD","U","21059T","2022-11-09 14:15:20","277216","15.19068074","0.0007654","97.5733","82.8016","316.7795","43.2838","0","999","7593","0.0009457","0.0001981","0","3649637","0 SPACEBEE-105","1 48896U 21059T   22313.59398469  .00019810  00000-0  94570-3 0  9993","2 48896  97.5733  82.8016 0007654 316.7795  43.2838 15.19068074 75939","2021-059T","48896","6886.793","94.795","513.929","503.387","0"
"GENERATED VIA SPACETRACK.ORG API","18 SPCS","48896","SPACEBEE-105","PAYLOAD","U","21059T","2022-11-09 20:34:45","470208","15.19077016","0.0007671","97.5734","83.0657","315.6852","44.3767","0","999","7597","0.00083977","0.00017583","0","3650001","0 SPACEBEE-105","1 48896U 21059T   22313.85747072  .00017583  00000-0  83977-3 0  9994","2 48896  97.5734  83.0657 0007671 315.6852  44.3767 15.19077016 75978","2021-059T","48896","6886.766","94.794","513.914","503.348","0"
"GENERATED VIA SPACETRACK.ORG API","18 SPCS","48896","SPACEBEE-105","PAYLOAD","U","21059T","2022-11-10 07:38:44","236320","15.19089984","0.0007672","97.5734","83.5282","314.0309","46.0292","0","999","7604","0.00070438","0.00014736","0","3650424","0 SPACEBEE-105","1 48896U 21059T   22314.31856755  .00014736  00000-0  70438-3 0  9990","2 48896  97.5734  83.5282 0007672 314.0309  46.0292 15.19089984 76046","2021-059T","48896","6886.727","94.794","513.875","503.308","0"
"GENERATED VIA SPACETRACK.ORG API","18 SPCS","48896","SPACEBEE-105","PAYLOAD","U","21059T","2022-11-10 07:38:44","236320","15.19089984","0.0007672","97.5734","83.5282","314.0309","46.0292","0","999","7604","0.00070438","0.00014736","0","3650484","0 SPACEBEE-105","1 48896U 21059T   22314.31856755  .00014736  00000-0  70438-3 0  9990","2 48896  97.5734  83.5282 0007672 314.0309  46.0292 15.19089984 76046","2021-059T","48896","6886.727","94.794","513.875","503.308","0"
"GENERATED VIA SPACETRACK.ORG API","18 SPCS","48896","SPACEBEE-105","PAYLOAD","U","21059T","2022-11-10 20:17:33","787680","15.19107703","0.0007599","97.5736","84.0561","311.8449","48.2136","0","999","7612","0.00072268","0.00015129","0","3650843","0 SPACEBEE-105","1 48896U 21059T   22314.84552995  .00015129  00000-0  72268-3 0  9997","2 48896  97.5736  84.0561 0007599 311.8449  48.2136 15.19107703 76122","2021-059T","48896","6886.673","94.792","513.771","503.305","0"
"GENERATED VIA SPACETRACK.ORG API","18 SPCS","48896","SPACEBEE-105","PAYLOAD","U","21059T","2022-11-11 07:21:31","760640","15.19120632","0.0007574","97.5737","84.5185","310.4587","49.5986","0","999","7619","0.00068345","0.00014308","0","3651496","0 SPACEBEE-105","1 48896U 21059T   22315.30661760  .00014308  00000-0  68345-3 0  9999","2 48896  97.5737  84.5185 0007574 310.4587  49.5986 15.19120632 76191","2021-059T","48896","6886.634","94.792","513.715","503.283","0"
"GENERATED VIA SPACETRACK.ORG API","18 SPCS","48896","SPACEBEE-105","PAYLOAD","U","21059T","2022-11-11 21:35:11","411232","15.19142521","0.0007512","97.5738","85.1129","308.406","51.6499","0","999","7628","0.00079793","0.00016732","0","3651775","0 SPACEBEE-105","1 48896U 21059T   22315.89943763  .00016732  00000-0  79793-3 0  9991","2 48896  97.5738  85.1129 0007512 308.4060  51.6499 15.19142521 76286","2021-059T","48896","6886.568","94.790","513.606","503.260","0"
"GENERATED VIA SPACETRACK.ORG API","18 SPCS","48896","SPACEBEE-105","PAYLOAD","U","21059T","2022-11-12 02:19:44","455584","15.19150025","0.0007518","97.5738","85.311","307.6719","52.3832","0","999","7631","0.0008312","0.00017438","0","3651878","0 SPACEBEE-105","1 48896U 21059T   22316.09704231  .00017438  00000-0  83120-3 0  9992","2 48896  97.5738  85.3110 0007518 307.6719  52.3832 15.19150025 76317","2021-059T","48896","6886.545","94.790","513.587","503.233","0"
"GENERATED VIA SPACETRACK.ORG API","18 SPCS","48896","SPACEBEE-105","PAYLOAD","U","21059T","2022-11-12 08:39:08","408736","15.19159954","0.0007477","97.574","85.575","306.8152","53.2396","0","999","7635","0.00084143","0.00017659","0","3652392","0 SPACEBEE-105","1 48896U 21059T   22316.36051399  .00017659  00000-0  84143-3 0  9993","2 48896  97.5740  85.5750 0007477 306.8152  53.2396 15.19159954 76357","2021-059T","48896","6886.515","94.789","513.529","503.231","0"
"GENERATED VIA SPACETRACK.ORG API","18 SPCS","48896","SPACEBEE-105","PAYLOAD","U","21059T","2022-11-12 21:17:55","921056","15.19174563","0.0007455","97.5738","86.1034","304.7853","55.2679","0","999","7643","0.00068875","0.00014442","0","3652635","0 SPACEBEE-105","1 48896U 21059T   22316.88745279  .00014442  00000-0  68875-3 0  9998","2 48896  97.5738  86.1034 0007455 304.7853  55.2679 15.19174563 76435","2021-059T","48896","6886.471","94.788","513.470","503.202","0"
"GENERATED VIA SPACETRACK.ORG API","18 SPCS","48896","SPACEBEE-105","PAYLOAD","U","21059T","2022-11-13 03:37:19","486272","15.1918237","0.0007448","97.5738","86.3675","303.718","56.3344","0","999","7647","0.00065506","0.00013734","0","3652730","0 SPACEBEE-105","1 48896U 21059T   22317.15091998  .00013734  00000-0  65506-3 0  9992","2 48896  97.5738  86.3675 0007448 303.7180  56.3344 15.19182370 76472","2021-059T","48896","6886.447","94.788","513.441","503.183","0"
"GENERATED VIA SPACETRACK.ORG API","18 SPCS","48896","SPACEBEE-105","PAYLOAD","U","21059T","2022-11-13 08:21:52","75296","15.19188934","0.0007465","97.5737","86.5657","303.0586","56.993","0","999","7650","0.00064462","0.00013516","0","3653238","0 SPACEBEE-105","1 48896U 21059T   22317.34851939  .00013516  00000-0  64462-3 0  9990","2 48896  97.5737  86.5657 0007465 303.0586  56.9930 15.19188934 76508","2021-059T","48896","6886.428","94.787","513.433","503.152","0"
"GENERATED VIA SPACETRACK.ORG API","18 SPCS","48896","SPACEBEE-105","PAYLOAD","U","21059T","2022-11-13 14:41:15","422784","15.19198024","0.0007463","97.5736","86.8299","302.0411","58.0098","0","999","7654","0.00070158","0.00014723","0","3653957","0 SPACEBEE-105","1 48896U 21059T   22317.61198406  .00014723  00000-0  70158-3 0  9993","2 48896  97.5736  86.8299 0007463 302.0411  58.0098 15.19198024 76549","2021-059T","48896","6886.400","94.787","513.404","503.126","0"
"GENERATED VIA SPACETRACK.ORG API","18 SPCS","48896","SPACEBEE-105","PAYLOAD","U","21059T","2022-11-14 08:04:34","89888","15.1921751","0.0007475","97.5735","87.5561","299.173","60.8756","0","999","7665","0.00061115","0.0001282","0","3654221","0 SPACEBEE-105","1 48896U 21059T   22318.33650567  .00012820  00000-0  61115-3 0  9993","2 48896  97.5735  87.5561 0007475 299.1730  60.8756 15.19217510 76657","2021-059T","48896","6886.341","94.786","513.354","503.059","0"
"GENERATED VIA SPACETRACK.ORG API","18 SPCS","48896","SPACEBEE-105","PAYLOAD","U","21059T","2022-11-14 08:04:34","89888","15.1921751","0.0007475","97.5735","87.5561","299.173","60.8756","0","999","7665","0.00061115","0.0001282","0","3654975","0 SPACEBEE-105","1 48896U 21059T   22318.33650567  .00012820  00000-0  61115-3 0  9993","2 48896  97.5735  87.5561 0007475 299.1730  60.8756 15.19217510 76657","2021-059T","48896","6886.341","94.786","513.354","503.059","0"
